COSMOS 2425 (716)       
1 29670U 06062A   21325.68767446  .00000014  00000+0  00000+0 0  9992
2 29670  64.8059 250.1391 0024488 343.7185 199.5656  2.13113460116028
COSMOS 2433 (720)       
1 32275U 07052A   21325.74350082 -.00000061  00000+0  00000+0 0  9991
2 32275  66.0773  11.5653 0004692 234.0279 158.5218  2.13104170109547
COSMOS 2432 (719)       
1 32276U 07052B   21325.70424865 -.00000061  00000+0  00000+0 0  9999
2 32276  66.0905  11.6644 0009459 315.4506 355.8337  2.13103333109532
COSMOS 2434 (721)       
1 32393U 07065A   21326.18194398  .00000016  00000+0  00000+0 0  9990
2 32393  64.4250 248.5084 0001722  73.4926 184.2568  2.13103059108251
COSMOS 2436 (723)       
1 32395U 07065C   21325.43139896  .00000013  00000+0  00000+0 0  9998
2 32395  64.4340 248.5889 0015558 355.7527 182.2137  2.13102855108175
COSMOS 2456 (730)       
1 36111U 09070A   21325.63916963  .00000054  00000+0  00000+0 0  9991
2 36111  64.3045 128.1896 0001711 352.7481  17.0867  2.13099196 92911
COSMOS 2457 (733)       
1 36112U 09070B   21326.24300149  .00000058  00000+0  00000+0 0  9997
2 36112  64.2883 128.0497 0006880 147.9656  90.7459  2.13101373 92924
COSMOS 2459 (731)       
1 36400U 10007A   21326.24506591 -.00000060  00000+0  00000+0 0  9992
2 36400  65.9716  10.4503 0025625 345.1490 292.4644  2.13111080 91264
COSMOS 2461 (735)       
1 36401U 10007B   21325.88959975 -.00000061  00000+0  00000+0 0  9991
2 36401  65.9670  10.4272 0018120   2.7384 359.5552  2.13103560 91275
COSMOS 2460 (732)       
1 36402U 10007C   21325.48774197 -.00000061  00000+0  00000+0 0  9999
2 36402  65.9536  10.3959 0002041 220.3368 140.0770  2.13106407 91260
COSMOS 2464 (736)       
1 37139U 10041C   21325.91556691  .00000015  00000+0  00000+0 0  9998
2 37139  64.0240 247.6959 0028471   7.6750 265.4748  2.13100723 87325
COSMOS 2471 (701K)      
1 37372U 11009A   21325.70217196 -.00000061  00000+0  00000+0 0  9995
2 37372  65.9475  10.3167 0017491 229.9014  59.0392  2.13062520 83535
COSMOS 2476 (744)       
1 37867U 11064A   21326.03940490  .00000059  00000+0  00000+0 0  9998
2 37867  64.5975 129.4509 0019590 230.2788 350.2788  2.13101801 78266
COSMOS 2477 (745)       
1 37868U 11064B   21325.93756338  .00000058  00000+0  00000+0 0  9992
2 37868  64.6054 129.5169 0016899 230.6789  90.0010  2.13101621 78215
COSMOS 2475 (743)       
1 37869U 11064C   21325.81127772  .00000057  00000+0  00000+0 0  9993
2 37869  64.6125 129.5274 0020281 252.8237 288.8355  2.13101897 78221
COSMOS 2485 (747)       
1 39155U 13019A   21325.71403793  .00000057  00000+0  00000+0 0  9994
2 39155  64.7627 129.8451 0020200 226.1763 149.2374  2.13101880 66734
COSMOS 2492 (754)       
1 39620U 14012A   21325.18278829 -.00000062  00000+0  00000+0 0  9993
2 39620  65.8416  10.1160 0012798 313.6625  48.8241  2.13103144 59677
COSMOS 2500 (755)       
1 40001U 14032A   21325.76810963 -.00000061  00000+0  00000+0 0  9994
2 40001  65.7818   9.9727 0008389 207.8738 102.8655  2.13102270 57893
COSMOS 2501 (702K)      
1 40315U 14075A   21326.26977875  .00000015  00000+0  00000+0 0  9999
2 40315  63.7345 248.4315 0017604 211.9379 290.6972  2.13101253 54316
COSMOS 2514 (751)       
1 41330U 16008A   21325.83616377 -.00000061  00000+0  00000+0 0  9996
2 41330  65.5824   9.7142 0012084 215.2501 331.1399  2.13102733 45063
COSMOS 2516 (753)       
1 41554U 16032A   21326.04941053  .00000015  00000+0  00000+0 0  9995
2 41554  63.9601 248.6559 0013985 221.2870  27.4339  2.13106774 42671
COSMOS 2522 (752)       
1 42939U 17055A   21325.77657816  .00000014  00000+0  00000+0 0  9998
2 42939  64.1935 248.9999 0008441 250.5723   8.8942  2.13102004 32423
COSMOS 2527 (756)       
1 43508U 18053A   21325.79234164  .00000058  00000+0  00000+0 0  9997
2 43508  64.9258 129.7992 0006895 211.7460  91.9370  2.13102481 26711
COSMOS 2529 (757)       
1 43687U 18086A   21325.85026163  .00000014  00000+0  00000+0 0  9998
2 43687  64.4082 249.2582 0010892 271.1694   0.3699  2.13102083 23738
COSMOS 2534 (758)       
1 44299U 19030A   21326.12089478  .00000015  00000+0  00000+0 0  9998
2 44299  64.4789 249.1136 0013693 288.7713 325.1079  2.13101838 19387
COSMOS 2544 (759)       
1 44850U 19088A   21325.77783860  .00000058  00000+0  00000+0 0  9997
2 44850  64.9114 129.6564 0009837 253.2601  82.9175  2.13102256 15142
COSMOS 2545 (760)       
1 45358U 20018A   21325.90743885 -.00000063  00000+0  00000+0 0  9991
2 45358  64.9188  10.4889 0010964 243.9066  41.4879  2.13102614 13101
